ONEWEB-0092             
1 45437U 20020P   25332.20557079 -.00000554  00000+0 -15985-2 0  9992
2 45437  87.8866  61.0841 0001451 106.4719 253.6569 13.11416321276449
ONEWEB-0085             
1 45438U 20020Q   25331.78426728  .00000554  00000+0  15261-2 0  9996
2 45438  87.8864  61.1768 0001800 111.5125 248.6195 13.11417341276276
ONEWEB-0096             
1 45439U 20020R   25332.01485422  .00000537  00000+0  14783-2 0  9999
2 45439  87.8872  61.1103 0001847 106.3221 253.8110 13.11416290276298
ONEWEB-0037             
1 45440U 20020S   25331.76645715  .00000206  00000+0  54419-3 0  9999
2 45440  87.8880  61.1285 0001637 105.2106 254.9203 13.11418564276298
ONEWEB-0042             
1 45441U 20020T   25332.00453920  .00000351  00000+0  95577-3 0  9994
2 45441  87.8868  61.1120 0001661 108.8694 251.2614 13.11418043276299
ONEWEB-0098             
1 45442U 20020U   25332.00042395  .00000337  00000+0  91459-3 0  9994
2 45442  87.8870  61.1248 0001726 100.9522 259.1800 13.11420167276271
ONEWEB-0055             
1 45443U 20020V   25332.21235911 -.00000330  00000+0 -96777-3 0  9999
2 45443  87.8871  61.0836 0001695 101.5174 258.6145 13.11418013276273
ONEWEB-0093             
1 45444U 20020W   25332.18792230 -.00000075  00000+0 -24763-3 0  9990
2 45444  87.8874  61.0753 0001886 117.6699 242.4620 13.11414920276336
ONEWEB-0029             
1 45445U 20020X   25332.20387498 -.00000459  00000+0 -13311-2 0  9992
2 45445  87.8870  61.0848 0001795 106.5884 253.5441 13.11415088276318
ONEWEB-0068             
1 45446U 20020Y   25332.18765068 -.00000045  00000+0 -16334-3 0  9993
2 45446  87.8874  61.0769 0001871 107.8310 252.3022 13.11414836276253
ONEWEB-0046             
1 45447U 20020Z   25331.95041725  .00000223  00000+0  59409-3 0  9991
2 45447  87.8871  61.1319 0001658 112.3982 247.7322 13.11415310276239
ONEWEB-0063             
1 45448U 20020AA  25332.20811655  .00005550  00000+0  15622-1 0  9993
2 45448  87.8882  61.0789 0001748 108.1954 251.9364 13.11386547276359
ONEWEB-0019             
1 45449U 20020AB  25332.18156175  .00010025  00000+0  28165-1 0  9999
2 45449  87.8856  61.0944 0001885 120.4754 239.6560 13.11547024276193
ONEWEB-0094             
1 45450U 20020AC  25332.19990597  .00000825  00000+0  20926-2 0  9991
2 45450  87.9132  45.8006 0001965  97.7757 262.3598 13.17647059279844
ONEWEB-0087             
1 45451U 20020AD  25331.98927069 -.00000207  00000+0 -61910-3 0  9997
2 45451  87.8880  61.0787 0002010 108.6267 251.5079 13.11417845276214
ONEWEB-0082             
1 45452U 20020AE  25332.21490399 -.00000222  00000+0 -66267-3 0  9993
2 45452  87.8882  61.0592 0001878 107.1029 253.0304 13.11417839276336
ONEWEB-0050             
1 45453U 20020AF  25332.06128610  .00004078  00000+0  42749-3 0  9991
2 45453  88.9223 260.6462 0003662  27.3860 332.7561 14.89385574310436
