[{"OBJECT_NAME":"ONEWEB-0092","OBJECT_ID":"2020-020P","EPOCH":"2025-11-28T04:56:01.316256","MEAN_MOTION":13.11416321,"ECCENTRICITY":0.0001451,"INCLINATION":87.8866,"RA_OF_ASC_NODE":61.0841,"ARG_OF_PERICENTER":106.4719,"MEAN_ANOMALY":253.6569,"EPHEMERIS_TYPE":0,"CLASSIFICATION_TYPE":"U","NORAD_CAT_ID":45437,"ELEMENT_SET_NO":999,"REV_AT_EPOCH":27644,"BSTAR":-0.0015985,"MEAN_MOTION_DOT":-5.54e-6,"MEAN_MOTION_DDOT":0},{"OBJECT_NAME":"ONEWEB-0085","OBJECT_ID":"2020-020Q","EPOCH":"2025-11-27T18:49:20.692992","MEAN_MOTION":13.11417341,"ECCENTRICITY":0.00018005,"INCLINATION":87.8864,"RA_OF_ASC_NODE":61.1768,"ARG_OF_PERICENTER":111.5125,"MEAN_ANOMALY":248.6195,"EPHEMERIS_TYPE":0,"CLASSIFICATION_TYPE":"U","NORAD_CAT_ID":45438,"ELEMENT_SET_NO":999,"REV_AT_EPOCH":27627,"BSTAR":0.0015260831,"MEAN_MOTION_DOT":5.54e-6,"MEAN_MOTION_DDOT":0},{"OBJECT_NAME":"ONEWEB-0096","OBJECT_ID":"2020-020R","EPOCH":"2025-11-28T00:21:23.404608","MEAN_MOTION":13.1141629,"ECCENTRICITY":0.0001847,"INCLINATION":87.8872,"RA_OF_ASC_NODE":61.1103,"ARG_OF_PERICENTER":106.3221,"MEAN_ANOMALY":253.811,"EPHEMERIS_TYPE":0,"CLASSIFICATION_TYPE":"U","NORAD_CAT_ID":45439,"ELEMENT_SET_NO":999,"REV_AT_EPOCH":27629,"BSTAR":0.0014783,"MEAN_MOTION_DOT":5.37e-6,"MEAN_MOTION_DDOT":0},{"OBJECT_NAME":"ONEWEB-0037","OBJECT_ID":"2020-020S","EPOCH":"2025-11-27T18:23:41.897760","MEAN_MOTION":13.11418564,"ECCENTRICITY":0.00016374,"INCLINATION":87.888,"RA_OF_ASC_NODE":61.1285,"ARG_OF_PERICENTER":105.2106,"MEAN_ANOMALY":254.9203,"EPHEMERIS_TYPE":0,"CLASSIFICATION_TYPE":"U","NORAD_CAT_ID":45440,"ELEMENT_SET_NO":999,"REV_AT_EPOCH":27629,"BSTAR":0.00054419403,"MEAN_MOTION_DOT":2.06e-6,"MEAN_MOTION_DDOT":0},{"OBJECT_NAME":"ONEWEB-0042","OBJECT_ID":"2020-020T","EPOCH":"2025-11-28T00:06:32.186880","MEAN_MOTION":13.11418043,"ECCENTRICITY":0.0001661,"INCLINATION":87.8868,"RA_OF_ASC_NODE":61.112,"ARG_OF_PERICENTER":108.8694,"MEAN_ANOMALY":251.2614,"EPHEMERIS_TYPE":0,"CLASSIFICATION_TYPE":"U","NORAD_CAT_ID":45441,"ELEMENT_SET_NO":999,"REV_AT_EPOCH":27629,"BSTAR":0.00095577,"MEAN_MOTION_DOT":3.51e-6,"MEAN_MOTION_DDOT":0},{"OBJECT_NAME":"ONEWEB-0098","OBJECT_ID":"2020-020U","EPOCH":"2025-11-28T00:00:36.629280","MEAN_MOTION":13.11420167,"ECCENTRICITY":0.0001726,"INCLINATION":87.887,"RA_OF_ASC_NODE":61.1248,"ARG_OF_PERICENTER":100.9522,"MEAN_ANOMALY":259.18,"EPHEMERIS_TYPE":0,"CLASSIFICATION_TYPE":"U","NORAD_CAT_ID":45442,"ELEMENT_SET_NO":999,"REV_AT_EPOCH":27627,"BSTAR":0.00091459,"MEAN_MOTION_DOT":3.37e-6,"MEAN_MOTION_DDOT":0},{"OBJECT_NAME":"ONEWEB-0055","OBJECT_ID":"2020-020V","EPOCH":"2025-11-28T05:05:47.827104","MEAN_MOTION":13.11418013,"ECCENTRICITY":0.0001695,"INCLINATION":87.8871,"RA_OF_ASC_NODE":61.0836,"ARG_OF_PERICENTER":101.5174,"MEAN_ANOMALY":258.6145,"EPHEMERIS_TYPE":0,"CLASSIFICATION_TYPE":"U","NORAD_CAT_ID":45443,"ELEMENT_SET_NO":999,"REV_AT_EPOCH":27627,"BSTAR":-0.00096777,"MEAN_MOTION_DOT":-3.3e-6,"MEAN_MOTION_DDOT":0},{"OBJECT_NAME":"ONEWEB-0093","OBJECT_ID":"2020-020W","EPOCH":"2025-11-28T04:30:36.486720","MEAN_MOTION":13.1141492,"ECCENTRICITY":0.0001886,"INCLINATION":87.8874,"RA_OF_ASC_NODE":61.0753,"ARG_OF_PERICENTER":117.6699,"MEAN_ANOMALY":242.462,"EPHEMERIS_TYPE":0,"CLASSIFICATION_TYPE":"U","NORAD_CAT_ID":45444,"ELEMENT_SET_NO":999,"REV_AT_EPOCH":27633,"BSTAR":-0.00024763,"MEAN_MOTION_DOT":-7.5e-7,"MEAN_MOTION_DDOT":0},{"OBJECT_NAME":"ONEWEB-0029","OBJECT_ID":"2020-020X","EPOCH":"2025-11-28T04:53:34.798272","MEAN_MOTION":13.11415088,"ECCENTRICITY":0.0001795,"INCLINATION":87.887,"RA_OF_ASC_NODE":61.0848,"ARG_OF_PERICENTER":106.5884,"MEAN_ANOMALY":253.5441,"EPHEMERIS_TYPE":0,"CLASSIFICATION_TYPE":"U","NORAD_CAT_ID":45445,"ELEMENT_SET_NO":999,"REV_AT_EPOCH":27631,"BSTAR":-0.0013311,"MEAN_MOTION_DOT":-4.59e-6,"MEAN_MOTION_DDOT":0},{"OBJECT_NAME":"ONEWEB-0068","OBJECT_ID":"2020-020Y","EPOCH":"2025-11-28T04:30:13.018752","MEAN_MOTION":13.11414836,"ECCENTRICITY":0.0001871,"INCLINATION":87.8874,"RA_OF_ASC_NODE":61.0769,"ARG_OF_PERICENTER":107.831,"MEAN_ANOMALY":252.3022,"EPHEMERIS_TYPE":0,"CLASSIFICATION_TYPE":"U","NORAD_CAT_ID":45446,"ELEMENT_SET_NO":999,"REV_AT_EPOCH":27625,"BSTAR":-0.00016334,"MEAN_MOTION_DOT":-4.5e-7,"MEAN_MOTION_DDOT":0},{"OBJECT_NAME":"ONEWEB-0046","OBJECT_ID":"2020-020Z","EPOCH":"2025-11-27T22:48:36.050400","MEAN_MOTION":13.1141531,"ECCENTRICITY":0.0001658,"INCLINATION":87.8871,"RA_OF_ASC_NODE":61.1319,"ARG_OF_PERICENTER":112.3982,"MEAN_ANOMALY":247.7322,"EPHEMERIS_TYPE":0,"CLASSIFICATION_TYPE":"U","NORAD_CAT_ID":45447,"ELEMENT_SET_NO":999,"REV_AT_EPOCH":27623,"BSTAR":0.00059409,"MEAN_MOTION_DOT":2.23e-6,"MEAN_MOTION_DDOT":0},{"OBJECT_NAME":"ONEWEB-0063","OBJECT_ID":"2020-020AA","EPOCH":"2025-11-28T04:59:41.269920","MEAN_MOTION":13.11386547,"ECCENTRICITY":0.0001748,"INCLINATION":87.8882,"RA_OF_ASC_NODE":61.0789,"ARG_OF_PERICENTER":108.1954,"MEAN_ANOMALY":251.9364,"EPHEMERIS_TYPE":0,"CLASSIFICATION_TYPE":"U","NORAD_CAT_ID":45448,"ELEMENT_SET_NO":999,"REV_AT_EPOCH":27635,"BSTAR":0.015622,"MEAN_MOTION_DOT":5.55e-5,"MEAN_MOTION_DDOT":0},{"OBJECT_NAME":"ONEWEB-0019","OBJECT_ID":"2020-020AB","EPOCH":"2025-11-28T04:21:26.935200","MEAN_MOTION":13.11547024,"ECCENTRICITY":0.0001885,"INCLINATION":87.8856,"RA_OF_ASC_NODE":61.0944,"ARG_OF_PERICENTER":120.4754,"MEAN_ANOMALY":239.656,"EPHEMERIS_TYPE":0,"CLASSIFICATION_TYPE":"U","NORAD_CAT_ID":45449,"ELEMENT_SET_NO":999,"REV_AT_EPOCH":27619,"BSTAR":0.028165,"MEAN_MOTION_DOT":0.00010025,"MEAN_MOTION_DDOT":0},{"OBJECT_NAME":"ONEWEB-0094","OBJECT_ID":"2020-020AC","EPOCH":"2025-11-28T04:47:51.875808","MEAN_MOTION":13.17647059,"ECCENTRICITY":0.0001965,"INCLINATION":87.9132,"RA_OF_ASC_NODE":45.8006,"ARG_OF_PERICENTER":97.7757,"MEAN_ANOMALY":262.3598,"EPHEMERIS_TYPE":0,"CLASSIFICATION_TYPE":"U","NORAD_CAT_ID":45450,"ELEMENT_SET_NO":999,"REV_AT_EPOCH":27984,"BSTAR":0.0020926,"MEAN_MOTION_DOT":8.25e-6,"MEAN_MOTION_DDOT":0},{"OBJECT_NAME":"ONEWEB-0087","OBJECT_ID":"2020-020AD","EPOCH":"2025-11-27T23:44:32.987616","MEAN_MOTION":13.11417845,"ECCENTRICITY":0.000201,"INCLINATION":87.888,"RA_OF_ASC_NODE":61.0787,"ARG_OF_PERICENTER":108.6267,"MEAN_ANOMALY":251.5079,"EPHEMERIS_TYPE":0,"CLASSIFICATION_TYPE":"U","NORAD_CAT_ID":45451,"ELEMENT_SET_NO":999,"REV_AT_EPOCH":27621,"BSTAR":-0.0006191,"MEAN_MOTION_DOT":-2.07e-6,"MEAN_MOTION_DDOT":0},{"OBJECT_NAME":"ONEWEB-0082","OBJECT_ID":"2020-020AE","EPOCH":"2025-11-28T05:09:27.704736","MEAN_MOTION":13.11417839,"ECCENTRICITY":0.0001878,"INCLINATION":87.8882,"RA_OF_ASC_NODE":61.0592,"ARG_OF_PERICENTER":107.1029,"MEAN_ANOMALY":253.0304,"EPHEMERIS_TYPE":0,"CLASSIFICATION_TYPE":"U","NORAD_CAT_ID":45452,"ELEMENT_SET_NO":999,"REV_AT_EPOCH":27633,"BSTAR":-0.00066267,"MEAN_MOTION_DOT":-2.22e-6,"MEAN_MOTION_DDOT":0},{"OBJECT_NAME":"ONEWEB-0050","OBJECT_ID":"2020-020AF","EPOCH":"2025-11-28T01:28:15.119040","MEAN_MOTION":14.89385574,"ECCENTRICITY":0.0003662,"INCLINATION":88.9223,"RA_OF_ASC_NODE":260.6462,"ARG_OF_PERICENTER":27.386,"MEAN_ANOMALY":332.7561,"EPHEMERIS_TYPE":0,"CLASSIFICATION_TYPE":"U","NORAD_CAT_ID":45453,"ELEMENT_SET_NO":999,"REV_AT_EPOCH":31043,"BSTAR":0.00042749,"MEAN_MOTION_DOT":4.078e-5,"MEAN_MOTION_DDOT":0}]
